[{"OBJECT_NAME":"TDRS 11","OBJECT_ID":"2013-004A","EPOCH":"2026-03-07T02:49:16.796928","MEAN_MOTION":1.00277526,"ECCENTRICITY":0.0004025,"INCLINATION":3.3713,"RA_OF_ASC_NODE":29.4047,"ARG_OF_PERICENTER":351.6565,"MEAN_ANOMALY":11.7874,"EPHEMERIS_TYPE":0,"CLASSIFICATION_TYPE":"U","NORAD_CAT_ID":39070,"ELEMENT_SET_NO":999,"REV_AT_EPOCH":4567,"BSTAR":0,"MEAN_MOTION_DOT":7.9e-7,"MEAN_MOTION_DDOT":0},{"OBJECT_NAME":"TDRS 12","OBJECT_ID":"2014-004A","EPOCH":"2026-03-07T04:02:55.362048","MEAN_MOTION":1.00269118,"ECCENTRICITY":0.0003848,"INCLINATION":3.8786,"RA_OF_ASC_NODE":17.2915,"ARG_OF_PERICENTER":268.3377,"MEAN_ANOMALY":259.0587,"EPHEMERIS_TYPE":0,"CLASSIFICATION_TYPE":"U","NORAD_CAT_ID":39504,"ELEMENT_SET_NO":999,"REV_AT_EPOCH":4325,"BSTAR":0,"MEAN_MOTION_DOT":-2.71e-6,"MEAN_MOTION_DDOT":0},{"OBJECT_NAME":"GPM-CORE","OBJECT_ID":"2014-009C","EPOCH":"2026-03-07T04:26:44.568384","MEAN_MOTION":15.44662642,"ECCENTRICITY":0.0012412,"INCLINATION":64.9726,"RA_OF_ASC_NODE":289.877,"ARG_OF_PERICENTER":265.3189,"MEAN_ANOMALY":94.6534,"EPHEMERIS_TYPE":0,"CLASSIFICATION_TYPE":"U","NORAD_CAT_ID":39574,"ELEMENT_SET_NO":999,"REV_AT_EPOCH":68205,"BSTAR":0.00019248,"MEAN_MOTION_DOT":8.799e-5,"MEAN_MOTION_DDOT":0},{"OBJECT_NAME":"MMS 1","OBJECT_ID":"2015-011A","EPOCH":"2026-03-07T06:00:00.998784","MEAN_MOTION":0.28179295,"ECCENTRICITY":0.8421363,"INCLINATION":70.7972,"RA_OF_ASC_NODE":350.1855,"ARG_OF_PERICENTER":165.2641,"MEAN_ANOMALY":341.0327,"EPHEMERIS_TYPE":0,"CLASSIFICATION_TYPE":"U","NORAD_CAT_ID":40482,"ELEMENT_SET_NO":999,"REV_AT_EPOCH":134,"BSTAR":0,"MEAN_MOTION_DOT":-1.952e-5,"MEAN_MOTION_DDOT":0},{"OBJECT_NAME":"MMS 2","OBJECT_ID":"2015-011B","EPOCH":"2026-03-07T06:00:00.998784","MEAN_MOTION":0.28176915,"ECCENTRICITY":0.8422146,"INCLINATION":70.7975,"RA_OF_ASC_NODE":350.1872,"ARG_OF_PERICENTER":165.2732,"MEAN_ANOMALY":341.0178,"EPHEMERIS_TYPE":0,"CLASSIFICATION_TYPE":"U","NORAD_CAT_ID":40483,"ELEMENT_SET_NO":999,"REV_AT_EPOCH":134,"BSTAR":0,"MEAN_MOTION_DOT":-1.953e-5,"MEAN_MOTION_DDOT":0},{"OBJECT_NAME":"MMS 3","OBJECT_ID":"2015-011C","EPOCH":"2026-03-07T06:00:00.998784","MEAN_MOTION":0.28177041,"ECCENTRICITY":0.8421426,"INCLINATION":70.7999,"RA_OF_ASC_NODE":350.1919,"ARG_OF_PERICENTER":165.2673,"MEAN_ANOMALY":341.026,"EPHEMERIS_TYPE":0,"CLASSIFICATION_TYPE":"U","NORAD_CAT_ID":40484,"ELEMENT_SET_NO":999,"REV_AT_EPOCH":134,"BSTAR":0,"MEAN_MOTION_DOT":-1.953e-5,"MEAN_MOTION_DDOT":0},{"OBJECT_NAME":"MMS 4","OBJECT_ID":"2015-011D","EPOCH":"2026-03-07T06:00:00.998784","MEAN_MOTION":0.28179274,"ECCENTRICITY":0.8420881,"INCLINATION":70.7979,"RA_OF_ASC_NODE":350.1874,"ARG_OF_PERICENTER":165.2716,"MEAN_ANOMALY":341.0104,"EPHEMERIS_TYPE":0,"CLASSIFICATION_TYPE":"U","NORAD_CAT_ID":40485,"ELEMENT_SET_NO":999,"REV_AT_EPOCH":134,"BSTAR":0,"MEAN_MOTION_DOT":-1.952e-5,"MEAN_MOTION_DDOT":0},{"OBJECT_NAME":"TDRS 13","OBJECT_ID":"2017-047A","EPOCH":"2026-03-07T03:04:34.487616","MEAN_MOTION":1.0027235,"ECCENTRICITY":0.0010536,"INCLINATION":3.43,"RA_OF_ASC_NODE":0.1307,"ARG_OF_PERICENTER":98.6511,"MEAN_ANOMALY":100.7266,"EPHEMERIS_TYPE":0,"CLASSIFICATION_TYPE":"U","NORAD_CAT_ID":42915,"ELEMENT_SET_NO":999,"REV_AT_EPOCH":3132,"BSTAR":0,"MEAN_MOTION_DOT":-1.01e-6,"MEAN_MOTION_DDOT":0},{"OBJECT_NAME":"NOAA 20 (JPSS-1)","OBJECT_ID":"2017-073A","EPOCH":"2026-03-07T01:54:26.410176","MEAN_MOTION":14.19535238,"ECCENTRICITY":0.0001112,"INCLINATION":98.769,"RA_OF_ASC_NODE":6.4926,"ARG_OF_PERICENTER":140.9934,"MEAN_ANOMALY":219.1323,"EPHEMERIS_TYPE":0,"CLASSIFICATION_TYPE":"U","NORAD_CAT_ID":43013,"ELEMENT_SET_NO":999,"REV_AT_EPOCH":42998,"BSTAR":8.0523e-5,"MEAN_MOTION_DOT":1.26e-6,"MEAN_MOTION_DDOT":0}]
